{
  "type": "FeatureCollection",
  "features": [
    {
      "type": "Feature",
      "geometry": {
        "type": "Polygon",
        "coordinates": [
          [
            [
              93.73524731062193,
              26.757851832071047
            ],
            [
              93.74768431199539,
              26.757851832071047
            ],
            [
              93.74768431199539,
              26.768358149189094
            ],
            [
              93.73524731062193,
              26.768358149189094
            ],
            [
              93.73524731062193,
              26.757851832071047
            ]
          ]
        ]
      },
      "properties": {
        "candidate_id": "cand_r00_c00",
        "sensor_type": "sar",
        "resolution_m": 3.0,
        "acquisition_type": "archive",
        "data_role": "event_observation",
        "observation_at": "2016-08-13",
        "available_at": "2016-08-13",
        "processing_level": "L2",
        "usage_type": "internal",
        "guaranteed_purchase": true,
        "area_km2": 1.44,
        "base_rate_rub_km2": 788.64,
        "base_rate_status": "scenario",
        "base_rate_source": "Учебная ставка из постановки кейса КосмоХакатона 2026, контрольная дата 20.09.2026. Подтверждённый действующий размер БРЕ не установлен.",
        "priority_score": 2575.2747993220473,
        "covered_asset_count": 0,
        "covered_asset_ids": [],
        "grid_row": 0,
        "grid_col": 0,
        "cell_km": 1.2
      }
    },
    {
      "type": "Feature",
      "geometry": {
        "type": "Polygon",
        "coordinates": [
          [
            [
              93.74768431199539,
              26.757851832071047
            ],
            [
              93.76012131336884,
              26.757851832071047
            ],
            [
              93.76012131336884,
              26.768358149189094
            ],
            [
              93.74768431199539,
              26.768358149189094
            ],
            [
              93.74768431199539,
              26.757851832071047
            ]
          ]
        ]
      },
      "properties": {
        "candidate_id": "cand_r00_c01",
        "sensor_type": "sar",
        "resolution_m": 3.0,
        "acquisition_type": "archive",
        "data_role": "event_observation",
        "observation_at": "2016-08-13",
        "available_at": "2016-08-13",
        "processing_level": "L2",
        "usage_type": "internal",
        "guaranteed_purchase": true,
        "area_km2": 1.44,
        "base_rate_rub_km2": 788.64,
        "base_rate_status": "scenario",
        "base_rate_source": "Учебная ставка из постановки кейса КосмоХакатона 2026, контрольная дата 20.09.2026. Подтверждённый действующий размер БРЕ не установлен.",
        "priority_score": 1965.2080178356484,
        "covered_asset_count": 2,
        "covered_asset_ids": [
          "a04",
          "a10"
        ],
        "grid_row": 0,
        "grid_col": 1,
        "cell_km": 1.2
      }
    },
    {
      "type": "Feature",
      "geometry": {
        "type": "Polygon",
        "coordinates": [
          [
            [
              93.76012131336884,
              26.757851832071047
            ],
            [
              93.7725583147423,
              26.757851832071047
            ],
            [
              93.7725583147423,
              26.768358149189094
            ],
            [
              93.76012131336884,
              26.768358149189094
            ],
            [
              93.76012131336884,
              26.757851832071047
            ]
          ]
        ]
      },
      "properties": {
        "candidate_id": "cand_r00_c02",
        "sensor_type": "sar",
        "resolution_m": 3.0,
        "acquisition_type": "archive",
        "data_role": "event_observation",
        "observation_at": "2016-08-13",
        "available_at": "2016-08-13",
        "processing_level": "L2",
        "usage_type": "internal",
        "guaranteed_purchase": true,
        "area_km2": 1.44,
        "base_rate_rub_km2": 788.64,
        "base_rate_status": "scenario",
        "base_rate_source": "Учебная ставка из постановки кейса КосмоХакатона 2026, контрольная дата 20.09.2026. Подтверждённый действующий размер БРЕ не установлен.",
        "priority_score": 2176.534306329733,
        "covered_asset_count": 1,
        "covered_asset_ids": [
          "a02"
        ],
        "grid_row": 0,
        "grid_col": 2,
        "cell_km": 1.2
      }
    },
    {
      "type": "Feature",
      "geometry": {
        "type": "Polygon",
        "coordinates": [
          [
            [
              93.7725583147423,
              26.757851832071047
            ],
            [
              93.78499531611575,
              26.757851832071047
            ],
            [
              93.78499531611575,
              26.768358149189094
            ],
            [
              93.7725583147423,
              26.768358149189094
            ],
            [
              93.7725583147423,
              26.757851832071047
            ]
          ]
        ]
      },
      "properties": {
        "candidate_id": "cand_r00_c03",
        "sensor_type": "sar",
        "resolution_m": 3.0,
        "acquisition_type": "archive",
        "data_role": "event_observation",
        "observation_at": "2016-08-13",
        "available_at": "2016-08-13",
        "processing_level": "L2",
        "usage_type": "internal",
        "guaranteed_purchase": true,
        "area_km2": 1.44,
        "base_rate_rub_km2": 788.64,
        "base_rate_status": "scenario",
        "base_rate_source": "Учебная ставка из постановки кейса КосмоХакатона 2026, контрольная дата 20.09.2026. Подтверждённый действующий размер БРЕ не установлен.",
        "priority_score": 2125.8553514643754,
        "covered_asset_count": 0,
        "covered_asset_ids": [],
        "grid_row": 0,
        "grid_col": 3,
        "cell_km": 1.2
      }
    },
    {
      "type": "Feature",
      "geometry": {
        "type": "Polygon",
        "coordinates": [
          [
            [
              93.73524731062193,
              26.74734646548794
            ],
            [
              93.74768431199539,
              26.74734646548794
            ],
            [
              93.74768431199539,
              26.757851832071047
            ],
            [
              93.73524731062193,
              26.757851832071047
            ],
            [
              93.73524731062193,
              26.74734646548794
            ]
          ]
        ]
      },
      "properties": {
        "candidate_id": "cand_r01_c00",
        "sensor_type": "sar",
        "resolution_m": 3.0,
        "acquisition_type": "archive",
        "data_role": "event_observation",
        "observation_at": "2016-08-13",
        "available_at": "2016-08-13",
        "processing_level": "L2",
        "usage_type": "internal",
        "guaranteed_purchase": true,
        "area_km2": 1.44,
        "base_rate_rub_km2": 788.64,
        "base_rate_status": "scenario",
        "base_rate_source": "Учебная ставка из постановки кейса КосмоХакатона 2026, контрольная дата 20.09.2026. Подтверждённый действующий размер БРЕ не установлен.",
        "priority_score": 1827.2691561973625,
        "covered_asset_count": 0,
        "covered_asset_ids": [],
        "grid_row": 1,
        "grid_col": 0,
        "cell_km": 1.2
      }
    },
    {
      "type": "Feature",
      "geometry": {
        "type": "Polygon",
        "coordinates": [
          [
            [
              93.74768431199539,
              26.74734646548794
            ],
            [
              93.76012131336884,
              26.74734646548794
            ],
            [
              93.76012131336884,
              26.757851832071047
            ],
            [
              93.74768431199539,
              26.757851832071047
            ],
            [
              93.74768431199539,
              26.74734646548794
            ]
          ]
        ]
      },
      "properties": {
        "candidate_id": "cand_r01_c01",
        "sensor_type": "sar",
        "resolution_m": 3.0,
        "acquisition_type": "archive",
        "data_role": "event_observation",
        "observation_at": "2016-08-13",
        "available_at": "2016-08-13",
        "processing_level": "L2",
        "usage_type": "internal",
        "guaranteed_purchase": true,
        "area_km2": 1.44,
        "base_rate_rub_km2": 788.64,
        "base_rate_status": "scenario",
        "base_rate_source": "Учебная ставка из постановки кейса КосмоХакатона 2026, контрольная дата 20.09.2026. Подтверждённый действующий размер БРЕ не установлен.",
        "priority_score": 3098.0607035617795,
        "covered_asset_count": 1,
        "covered_asset_ids": [
          "a03"
        ],
        "grid_row": 1,
        "grid_col": 1,
        "cell_km": 1.2
      }
    },
    {
      "type": "Feature",
      "geometry": {
        "type": "Polygon",
        "coordinates": [
          [
            [
              93.76012131336884,
              26.74734646548794
            ],
            [
              93.7725583147423,
              26.74734646548794
            ],
            [
              93.7725583147423,
              26.757851832071047
            ],
            [
              93.76012131336884,
              26.757851832071047
            ],
            [
              93.76012131336884,
              26.74734646548794
            ]
          ]
        ]
      },
      "properties": {
        "candidate_id": "cand_r01_c02",
        "sensor_type": "sar",
        "resolution_m": 3.0,
        "acquisition_type": "archive",
        "data_role": "event_observation",
        "observation_at": "2016-08-13",
        "available_at": "2016-08-13",
        "processing_level": "L2",
        "usage_type": "internal",
        "guaranteed_purchase": true,
        "area_km2": 1.44,
        "base_rate_rub_km2": 788.64,
        "base_rate_status": "scenario",
        "base_rate_source": "Учебная ставка из постановки кейса КосмоХакатона 2026, контрольная дата 20.09.2026. Подтверждённый действующий размер БРЕ не установлен.",
        "priority_score": 2957.3187482111207,
        "covered_asset_count": 0,
        "covered_asset_ids": [],
        "grid_row": 1,
        "grid_col": 2,
        "cell_km": 1.2
      }
    },
    {
      "type": "Feature",
      "geometry": {
        "type": "Polygon",
        "coordinates": [
          [
            [
              93.7725583147423,
              26.74734646548794
            ],
            [
              93.78499531611575,
              26.74734646548794
            ],
            [
              93.78499531611575,
              26.757851832071047
            ],
            [
              93.7725583147423,
              26.757851832071047
            ],
            [
              93.7725583147423,
              26.74734646548794
            ]
          ]
        ]
      },
      "properties": {
        "candidate_id": "cand_r01_c03",
        "sensor_type": "sar",
        "resolution_m": 3.0,
        "acquisition_type": "archive",
        "data_role": "event_observation",
        "observation_at": "2016-08-13",
        "available_at": "2016-08-13",
        "processing_level": "L2",
        "usage_type": "internal",
        "guaranteed_purchase": true,
        "area_km2": 1.44,
        "base_rate_rub_km2": 788.64,
        "base_rate_status": "scenario",
        "base_rate_source": "Учебная ставка из постановки кейса КосмоХакатона 2026, контрольная дата 20.09.2026. Подтверждённый действующий размер БРЕ не установлен.",
        "priority_score": 949.9149170535347,
        "covered_asset_count": 0,
        "covered_asset_ids": [],
        "grid_row": 1,
        "grid_col": 3,
        "cell_km": 1.2
      }
    },
    {
      "type": "Feature",
      "geometry": {
        "type": "Polygon",
        "coordinates": [
          [
            [
              93.73524731062193,
              26.73684204883061
            ],
            [
              93.74768431199539,
              26.73684204883061
            ],
            [
              93.74768431199539,
              26.74734646548794
            ],
            [
              93.73524731062193,
              26.74734646548794
            ],
            [
              93.73524731062193,
              26.73684204883061
            ]
          ]
        ]
      },
      "properties": {
        "candidate_id": "cand_r02_c00",
        "sensor_type": "sar",
        "resolution_m": 3.0,
        "acquisition_type": "archive",
        "data_role": "event_observation",
        "observation_at": "2016-08-13",
        "available_at": "2016-08-13",
        "processing_level": "L2",
        "usage_type": "internal",
        "guaranteed_purchase": true,
        "area_km2": 1.44,
        "base_rate_rub_km2": 788.64,
        "base_rate_status": "scenario",
        "base_rate_source": "Учебная ставка из постановки кейса КосмоХакатона 2026, контрольная дата 20.09.2026. Подтверждённый действующий размер БРЕ не установлен.",
        "priority_score": 2323.307985557083,
        "covered_asset_count": 0,
        "covered_asset_ids": [],
        "grid_row": 2,
        "grid_col": 0,
        "cell_km": 1.2
      }
    },
    {
      "type": "Feature",
      "geometry": {
        "type": "Polygon",
        "coordinates": [
          [
            [
              93.74768431199539,
              26.73684204883061
            ],
            [
              93.76012131336884,
              26.73684204883061
            ],
            [
              93.76012131336884,
              26.74734646548794
            ],
            [
              93.74768431199539,
              26.74734646548794
            ],
            [
              93.74768431199539,
              26.73684204883061
            ]
          ]
        ]
      },
      "properties": {
        "candidate_id": "cand_r02_c01",
        "sensor_type": "sar",
        "resolution_m": 3.0,
        "acquisition_type": "archive",
        "data_role": "event_observation",
        "observation_at": "2016-08-13",
        "available_at": "2016-08-13",
        "processing_level": "L2",
        "usage_type": "internal",
        "guaranteed_purchase": true,
        "area_km2": 1.44,
        "base_rate_rub_km2": 788.64,
        "base_rate_status": "scenario",
        "base_rate_source": "Учебная ставка из постановки кейса КосмоХакатона 2026, контрольная дата 20.09.2026. Подтверждённый действующий размер БРЕ не установлен.",
        "priority_score": 1736.5525560778533,
        "covered_asset_count": 1,
        "covered_asset_ids": [
          "a05"
        ],
        "grid_row": 2,
        "grid_col": 1,
        "cell_km": 1.2
      }
    },
    {
      "type": "Feature",
      "geometry": {
        "type": "Polygon",
        "coordinates": [
          [
            [
              93.76012131336884,
              26.73684204883061
            ],
            [
              93.7725583147423,
              26.73684204883061
            ],
            [
              93.7725583147423,
              26.74734646548794
            ],
            [
              93.76012131336884,
              26.74734646548794
            ],
            [
              93.76012131336884,
              26.73684204883061
            ]
          ]
        ]
      },
      "properties": {
        "candidate_id": "cand_r02_c02",
        "sensor_type": "sar",
        "resolution_m": 3.0,
        "acquisition_type": "archive",
        "data_role": "event_observation",
        "observation_at": "2016-08-13",
        "available_at": "2016-08-13",
        "processing_level": "L2",
        "usage_type": "internal",
        "guaranteed_purchase": true,
        "area_km2": 1.44,
        "base_rate_rub_km2": 788.64,
        "base_rate_status": "scenario",
        "base_rate_source": "Учебная ставка из постановки кейса КосмоХакатона 2026, контрольная дата 20.09.2026. Подтверждённый действующий размер БРЕ не установлен.",
        "priority_score": 2242.0394450220447,
        "covered_asset_count": 0,
        "covered_asset_ids": [],
        "grid_row": 2,
        "grid_col": 2,
        "cell_km": 1.2
      }
    },
    {
      "type": "Feature",
      "geometry": {
        "type": "Polygon",
        "coordinates": [
          [
            [
              93.7725583147423,
              26.73684204883061
            ],
            [
              93.78499531611575,
              26.73684204883061
            ],
            [
              93.78499531611575,
              26.74734646548794
            ],
            [
              93.7725583147423,
              26.74734646548794
            ],
            [
              93.7725583147423,
              26.73684204883061
            ]
          ]
        ]
      },
      "properties": {
        "candidate_id": "cand_r02_c03",
        "sensor_type": "sar",
        "resolution_m": 3.0,
        "acquisition_type": "archive",
        "data_role": "event_observation",
        "observation_at": "2016-08-13",
        "available_at": "2016-08-13",
        "processing_level": "L2",
        "usage_type": "internal",
        "guaranteed_purchase": true,
        "area_km2": 1.44,
        "base_rate_rub_km2": 788.64,
        "base_rate_status": "scenario",
        "base_rate_source": "Учебная ставка из постановки кейса КосмоХакатона 2026, контрольная дата 20.09.2026. Подтверждённый действующий размер БРЕ не установлен.",
        "priority_score": 1797.7300504901996,
        "covered_asset_count": 0,
        "covered_asset_ids": [],
        "grid_row": 2,
        "grid_col": 3,
        "cell_km": 1.2
      }
    },
    {
      "type": "Feature",
      "geometry": {
        "type": "Polygon",
        "coordinates": [
          [
            [
              93.73524731062193,
              26.726338581490282
            ],
            [
              93.74768431199539,
              26.726338581490282
            ],
            [
              93.74768431199539,
              26.73684204883061
            ],
            [
              93.73524731062193,
              26.73684204883061
            ],
            [
              93.73524731062193,
              26.726338581490282
            ]
          ]
        ]
      },
      "properties": {
        "candidate_id": "cand_r03_c00",
        "sensor_type": "sar",
        "resolution_m": 3.0,
        "acquisition_type": "archive",
        "data_role": "event_observation",
        "observation_at": "2016-08-13",
        "available_at": "2016-08-13",
        "processing_level": "L2",
        "usage_type": "internal",
        "guaranteed_purchase": true,
        "area_km2": 1.44,
        "base_rate_rub_km2": 788.64,
        "base_rate_status": "scenario",
        "base_rate_source": "Учебная ставка из постановки кейса КосмоХакатона 2026, контрольная дата 20.09.2026. Подтверждённый действующий размер БРЕ не установлен.",
        "priority_score": 786.4855681564259,
        "covered_asset_count": 2,
        "covered_asset_ids": [
          "a01",
          "a08"
        ],
        "grid_row": 3,
        "grid_col": 0,
        "cell_km": 1.2
      }
    },
    {
      "type": "Feature",
      "geometry": {
        "type": "Polygon",
        "coordinates": [
          [
            [
              93.74768431199539,
              26.726338581490282
            ],
            [
              93.76012131336884,
              26.726338581490282
            ],
            [
              93.76012131336884,
              26.73684204883061
            ],
            [
              93.74768431199539,
              26.73684204883061
            ],
            [
              93.74768431199539,
              26.726338581490282
            ]
          ]
        ]
      },
      "properties": {
        "candidate_id": "cand_r03_c01",
        "sensor_type": "sar",
        "resolution_m": 3.0,
        "acquisition_type": "archive",
        "data_role": "event_observation",
        "observation_at": "2016-08-13",
        "available_at": "2016-08-13",
        "processing_level": "L2",
        "usage_type": "internal",
        "guaranteed_purchase": true,
        "area_km2": 1.44,
        "base_rate_rub_km2": 788.64,
        "base_rate_status": "scenario",
        "base_rate_source": "Учебная ставка из постановки кейса КосмоХакатона 2026, контрольная дата 20.09.2026. Подтверждённый действующий размер БРЕ не установлен.",
        "priority_score": 1241.9901631139837,
        "covered_asset_count": 0,
        "covered_asset_ids": [],
        "grid_row": 3,
        "grid_col": 1,
        "cell_km": 1.2
      }
    },
    {
      "type": "Feature",
      "geometry": {
        "type": "Polygon",
        "coordinates": [
          [
            [
              93.76012131336884,
              26.726338581490282
            ],
            [
              93.7725583147423,
              26.726338581490282
            ],
            [
              93.7725583147423,
              26.73684204883061
            ],
            [
              93.76012131336884,
              26.73684204883061
            ],
            [
              93.76012131336884,
              26.726338581490282
            ]
          ]
        ]
      },
      "properties": {
        "candidate_id": "cand_r03_c02",
        "sensor_type": "sar",
        "resolution_m": 3.0,
        "acquisition_type": "archive",
        "data_role": "event_observation",
        "observation_at": "2016-08-13",
        "available_at": "2016-08-13",
        "processing_level": "L2",
        "usage_type": "internal",
        "guaranteed_purchase": true,
        "area_km2": 1.44,
        "base_rate_rub_km2": 788.64,
        "base_rate_status": "scenario",
        "base_rate_source": "Учебная ставка из постановки кейса КосмоХакатона 2026, контрольная дата 20.09.2026. Подтверждённый действующий размер БРЕ не установлен.",
        "priority_score": 1252.8057562890208,
        "covered_asset_count": 2,
        "covered_asset_ids": [
          "a06",
          "a09"
        ],
        "grid_row": 3,
        "grid_col": 2,
        "cell_km": 1.2
      }
    },
    {
      "type": "Feature",
      "geometry": {
        "type": "Polygon",
        "coordinates": [
          [
            [
              93.7725583147423,
              26.726338581490282
            ],
            [
              93.78499531611575,
              26.726338581490282
            ],
            [
              93.78499531611575,
              26.73684204883061
            ],
            [
              93.7725583147423,
              26.73684204883061
            ],
            [
              93.7725583147423,
              26.726338581490282
            ]
          ]
        ]
      },
      "properties": {
        "candidate_id": "cand_r03_c03",
        "sensor_type": "sar",
        "resolution_m": 3.0,
        "acquisition_type": "archive",
        "data_role": "event_observation",
        "observation_at": "2016-08-13",
        "available_at": "2016-08-13",
        "processing_level": "L2",
        "usage_type": "internal",
        "guaranteed_purchase": true,
        "area_km2": 1.44,
        "base_rate_rub_km2": 788.64,
        "base_rate_status": "scenario",
        "base_rate_source": "Учебная ставка из постановки кейса КосмоХакатона 2026, контрольная дата 20.09.2026. Подтверждённый действующий размер БРЕ не установлен.",
        "priority_score": 427.95528922682206,
        "covered_asset_count": 1,
        "covered_asset_ids": [
          "a07"
        ],
        "grid_row": 3,
        "grid_col": 3,
        "cell_km": 1.2
      }
    },
    {
      "type": "Feature",
      "geometry": {
        "type": "Polygon",
        "coordinates": [
          [
            [
              93.73524731062193,
              26.715836062858603
            ],
            [
              93.74768431199539,
              26.715836062858603
            ],
            [
              93.74768431199539,
              26.726338581490282
            ],
            [
              93.73524731062193,
              26.726338581490282
            ],
            [
              93.73524731062193,
              26.715836062858603
            ]
          ]
        ]
      },
      "properties": {
        "candidate_id": "cand_r04_c00",
        "sensor_type": "sar",
        "resolution_m": 3.0,
        "acquisition_type": "archive",
        "data_role": "event_observation",
        "observation_at": "2016-08-13",
        "available_at": "2016-08-13",
        "processing_level": "L2",
        "usage_type": "internal",
        "guaranteed_purchase": true,
        "area_km2": 1.44,
        "base_rate_rub_km2": 788.64,
        "base_rate_status": "scenario",
        "base_rate_source": "Учебная ставка из постановки кейса КосмоХакатона 2026, контрольная дата 20.09.2026. Подтверждённый действующий размер БРЕ не установлен.",
        "priority_score": 402.0962245730552,
        "covered_asset_count": 0,
        "covered_asset_ids": [],
        "grid_row": 4,
        "grid_col": 0,
        "cell_km": 1.2
      }
    },
    {
      "type": "Feature",
      "geometry": {
        "type": "Polygon",
        "coordinates": [
          [
            [
              93.74768431199539,
              26.715836062858603
            ],
            [
              93.76012131336884,
              26.715836062858603
            ],
            [
              93.76012131336884,
              26.726338581490282
            ],
            [
              93.74768431199539,
              26.726338581490282
            ],
            [
              93.74768431199539,
              26.715836062858603
            ]
          ]
        ]
      },
      "properties": {
        "candidate_id": "cand_r04_c01",
        "sensor_type": "sar",
        "resolution_m": 3.0,
        "acquisition_type": "archive",
        "data_role": "event_observation",
        "observation_at": "2016-08-13",
        "available_at": "2016-08-13",
        "processing_level": "L2",
        "usage_type": "internal",
        "guaranteed_purchase": true,
        "area_km2": 1.44,
        "base_rate_rub_km2": 788.64,
        "base_rate_status": "scenario",
        "base_rate_source": "Учебная ставка из постановки кейса КосмоХакатона 2026, контрольная дата 20.09.2026. Подтверждённый действующий размер БРЕ не установлен.",
        "priority_score": 374.1617214763537,
        "covered_asset_count": 0,
        "covered_asset_ids": [],
        "grid_row": 4,
        "grid_col": 1,
        "cell_km": 1.2
      }
    },
    {
      "type": "Feature",
      "geometry": {
        "type": "Polygon",
        "coordinates": [
          [
            [
              93.76012131336884,
              26.715836062858603
            ],
            [
              93.7725583147423,
              26.715836062858603
            ],
            [
              93.7725583147423,
              26.726338581490282
            ],
            [
              93.76012131336884,
              26.726338581490282
            ],
            [
              93.76012131336884,
              26.715836062858603
            ]
          ]
        ]
      },
      "properties": {
        "candidate_id": "cand_r04_c02",
        "sensor_type": "sar",
        "resolution_m": 3.0,
        "acquisition_type": "archive",
        "data_role": "event_observation",
        "observation_at": "2016-08-13",
        "available_at": "2016-08-13",
        "processing_level": "L2",
        "usage_type": "internal",
        "guaranteed_purchase": true,
        "area_km2": 1.44,
        "base_rate_rub_km2": 788.64,
        "base_rate_status": "scenario",
        "base_rate_source": "Учебная ставка из постановки кейса КосмоХакатона 2026, контрольная дата 20.09.2026. Подтверждённый действующий размер БРЕ не установлен.",
        "priority_score": 69.98316614672513,
        "covered_asset_count": 0,
        "covered_asset_ids": [],
        "grid_row": 4,
        "grid_col": 2,
        "cell_km": 1.2
      }
    },
    {
      "type": "Feature",
      "geometry": {
        "type": "Polygon",
        "coordinates": [
          [
            [
              93.7725583147423,
              26.715836062858603
            ],
            [
              93.78499531611575,
              26.715836062858603
            ],
            [
              93.78499531611575,
              26.726338581490282
            ],
            [
              93.7725583147423,
              26.726338581490282
            ],
            [
              93.7725583147423,
              26.715836062858603
            ]
          ]
        ]
      },
      "properties": {
        "candidate_id": "cand_r04_c03",
        "sensor_type": "sar",
        "resolution_m": 3.0,
        "acquisition_type": "archive",
        "data_role": "event_observation",
        "observation_at": "2016-08-13",
        "available_at": "2016-08-13",
        "processing_level": "L2",
        "usage_type": "internal",
        "guaranteed_purchase": true,
        "area_km2": 1.44,
        "base_rate_rub_km2": 788.64,
        "base_rate_status": "scenario",
        "base_rate_source": "Учебная ставка из постановки кейса КосмоХакатона 2026, контрольная дата 20.09.2026. Подтверждённый действующий размер БРЕ не установлен.",
        "priority_score": 16.897371518894033,
        "covered_asset_count": 0,
        "covered_asset_ids": [],
        "grid_row": 4,
        "grid_col": 3,
        "cell_km": 1.2
      }
    },
    {
      "type": "Feature",
      "geometry": {
        "type": "Polygon",
        "coordinates": [
          [
            [
              93.73524731062193,
              26.74734646548794
            ],
            [
              93.76012131336884,
              26.74734646548794
            ],
            [
              93.76012131336884,
              26.768358149189094
            ],
            [
              93.73524731062193,
              26.768358149189094
            ],
            [
              93.73524731062193,
              26.74734646548794
            ]
          ]
        ]
      },
      "properties": {
        "candidate_id": "ctx_r00_c00",
        "sensor_type": "optical",
        "resolution_m": 10.0,
        "acquisition_type": "archive",
        "data_role": "context",
        "observation_at": "2016-02-14",
        "available_at": "2016-08-13",
        "processing_level": "L1",
        "usage_type": "internal",
        "guaranteed_purchase": false,
        "area_km2": 5.76,
        "base_rate_rub_km2": 788.64,
        "base_rate_status": "scenario",
        "base_rate_source": "Учебная ставка из постановки кейса КосмоХакатона 2026, контрольная дата 20.09.2026. Подтверждённый действующий размер БРЕ не установлен.",
        "priority_score": 9465.812676916838,
        "covered_asset_count": 3,
        "covered_asset_ids": [
          "a03",
          "a04",
          "a10"
        ],
        "grid_row": 0,
        "grid_col": 0,
        "cell_km": 2.4
      }
    },
    {
      "type": "Feature",
      "geometry": {
        "type": "Polygon",
        "coordinates": [
          [
            [
              93.76012131336884,
              26.74734646548794
            ],
            [
              93.78499531611575,
              26.74734646548794
            ],
            [
              93.78499531611575,
              26.768358149189094
            ],
            [
              93.76012131336884,
              26.768358149189094
            ],
            [
              93.76012131336884,
              26.74734646548794
            ]
          ]
        ]
      },
      "properties": {
        "candidate_id": "ctx_r00_c01",
        "sensor_type": "optical",
        "resolution_m": 10.0,
        "acquisition_type": "archive",
        "data_role": "context",
        "observation_at": "2016-02-14",
        "available_at": "2016-08-13",
        "processing_level": "L1",
        "usage_type": "internal",
        "guaranteed_purchase": false,
        "area_km2": 5.76,
        "base_rate_rub_km2": 788.64,
        "base_rate_status": "scenario",
        "base_rate_source": "Учебная ставка из постановки кейса КосмоХакатона 2026, контрольная дата 20.09.2026. Подтверждённый действующий размер БРЕ не установлен.",
        "priority_score": 8209.623323058764,
        "covered_asset_count": 1,
        "covered_asset_ids": [
          "a02"
        ],
        "grid_row": 0,
        "grid_col": 1,
        "cell_km": 2.4
      }
    }
  ]
}
