{
  "type": "FeatureCollection",
  "features": [
    {
      "type": "Feature",
      "geometry": {
        "type": "Polygon",
        "coordinates": [
          [
            [
              -1.1498435636729876,
              9.465178092746653
            ],
            [
              -1.1374065622995324,
              9.465178092746653
            ],
            [
              -1.1374065622995324,
              9.474710955089744
            ],
            [
              -1.1498435636729876,
              9.474710955089744
            ],
            [
              -1.1498435636729876,
              9.465178092746653
            ]
          ]
        ]
      },
      "properties": {
        "candidate_id": "cand_r00_c00",
        "sensor_type": "sar",
        "resolution_m": 3.0,
        "acquisition_type": "new",
        "data_role": "event_observation",
        "observation_at": "2018-09-19",
        "available_at": "2018-09-19",
        "processing_level": "L2",
        "usage_type": "internal",
        "guaranteed_purchase": true,
        "area_km2": 1.44,
        "base_rate_rub_km2": 788.64,
        "base_rate_status": "scenario",
        "base_rate_source": "Учебная ставка из постановки кейса КосмоХакатона 2026, контрольная дата 20.09.2026. Подтверждённый действующий размер БРЕ не установлен.",
        "priority_score": 445.0729455311018,
        "covered_asset_count": 0,
        "covered_asset_ids": [],
        "grid_row": 0,
        "grid_col": 0,
        "cell_km": 1.2
      }
    },
    {
      "type": "Feature",
      "geometry": {
        "type": "Polygon",
        "coordinates": [
          [
            [
              -1.1374065622995324,
              9.465178092746653
            ],
            [
              -1.1249695609260768,
              9.465178092746653
            ],
            [
              -1.1249695609260768,
              9.474710955089744
            ],
            [
              -1.1374065622995324,
              9.474710955089744
            ],
            [
              -1.1374065622995324,
              9.465178092746653
            ]
          ]
        ]
      },
      "properties": {
        "candidate_id": "cand_r00_c01",
        "sensor_type": "sar",
        "resolution_m": 3.0,
        "acquisition_type": "new",
        "data_role": "event_observation",
        "observation_at": "2018-09-19",
        "available_at": "2018-09-19",
        "processing_level": "L2",
        "usage_type": "internal",
        "guaranteed_purchase": true,
        "area_km2": 1.44,
        "base_rate_rub_km2": 788.64,
        "base_rate_status": "scenario",
        "base_rate_source": "Учебная ставка из постановки кейса КосмоХакатона 2026, контрольная дата 20.09.2026. Подтверждённый действующий размер БРЕ не установлен.",
        "priority_score": 19.375202179165775,
        "covered_asset_count": 2,
        "covered_asset_ids": [
          "a04",
          "a10"
        ],
        "grid_row": 0,
        "grid_col": 1,
        "cell_km": 1.2
      }
    },
    {
      "type": "Feature",
      "geometry": {
        "type": "Polygon",
        "coordinates": [
          [
            [
              -1.1249695609260768,
              9.465178092746653
            ],
            [
              -1.1125325595526214,
              9.465178092746653
            ],
            [
              -1.1125325595526214,
              9.474710955089744
            ],
            [
              -1.1249695609260768,
              9.474710955089744
            ],
            [
              -1.1249695609260768,
              9.465178092746653
            ]
          ]
        ]
      },
      "properties": {
        "candidate_id": "cand_r00_c02",
        "sensor_type": "sar",
        "resolution_m": 3.0,
        "acquisition_type": "new",
        "data_role": "event_observation",
        "observation_at": "2018-09-19",
        "available_at": "2018-09-19",
        "processing_level": "L2",
        "usage_type": "internal",
        "guaranteed_purchase": true,
        "area_km2": 1.44,
        "base_rate_rub_km2": 788.64,
        "base_rate_status": "scenario",
        "base_rate_source": "Учебная ставка из постановки кейса КосмоХакатона 2026, контрольная дата 20.09.2026. Подтверждённый действующий размер БРЕ не установлен.",
        "priority_score": 2.5536668056452285,
        "covered_asset_count": 1,
        "covered_asset_ids": [
          "a02"
        ],
        "grid_row": 0,
        "grid_col": 2,
        "cell_km": 1.2
      }
    },
    {
      "type": "Feature",
      "geometry": {
        "type": "Polygon",
        "coordinates": [
          [
            [
              -1.1125325595526214,
              9.465178092746653
            ],
            [
              -1.1000955581791663,
              9.465178092746653
            ],
            [
              -1.1000955581791663,
              9.474710955089744
            ],
            [
              -1.1125325595526214,
              9.474710955089744
            ],
            [
              -1.1125325595526214,
              9.465178092746653
            ]
          ]
        ]
      },
      "properties": {
        "candidate_id": "cand_r00_c03",
        "sensor_type": "sar",
        "resolution_m": 3.0,
        "acquisition_type": "new",
        "data_role": "event_observation",
        "observation_at": "2018-09-19",
        "available_at": "2018-09-19",
        "processing_level": "L2",
        "usage_type": "internal",
        "guaranteed_purchase": true,
        "area_km2": 1.44,
        "base_rate_rub_km2": 788.64,
        "base_rate_status": "scenario",
        "base_rate_source": "Учебная ставка из постановки кейса КосмоХакатона 2026, контрольная дата 20.09.2026. Подтверждённый действующий размер БРЕ не установлен.",
        "priority_score": 0.7020107220412797,
        "covered_asset_count": 0,
        "covered_asset_ids": [],
        "grid_row": 0,
        "grid_col": 3,
        "cell_km": 1.2
      }
    },
    {
      "type": "Feature",
      "geometry": {
        "type": "Polygon",
        "coordinates": [
          [
            [
              -1.1498435636729876,
              9.45564548793341
            ],
            [
              -1.1374065622995324,
              9.45564548793341
            ],
            [
              -1.1374065622995324,
              9.465178092746653
            ],
            [
              -1.1498435636729876,
              9.465178092746653
            ],
            [
              -1.1498435636729876,
              9.45564548793341
            ]
          ]
        ]
      },
      "properties": {
        "candidate_id": "cand_r01_c00",
        "sensor_type": "sar",
        "resolution_m": 3.0,
        "acquisition_type": "new",
        "data_role": "event_observation",
        "observation_at": "2018-09-19",
        "available_at": "2018-09-19",
        "processing_level": "L2",
        "usage_type": "internal",
        "guaranteed_purchase": true,
        "area_km2": 1.44,
        "base_rate_rub_km2": 788.64,
        "base_rate_status": "scenario",
        "base_rate_source": "Учебная ставка из постановки кейса КосмоХакатона 2026, контрольная дата 20.09.2026. Подтверждённый действующий размер БРЕ не установлен.",
        "priority_score": 80.94414772090079,
        "covered_asset_count": 0,
        "covered_asset_ids": [],
        "grid_row": 1,
        "grid_col": 0,
        "cell_km": 1.2
      }
    },
    {
      "type": "Feature",
      "geometry": {
        "type": "Polygon",
        "coordinates": [
          [
            [
              -1.1374065622995324,
              9.45564548793341
            ],
            [
              -1.1249695609260768,
              9.45564548793341
            ],
            [
              -1.1249695609260768,
              9.465178092746653
            ],
            [
              -1.1374065622995324,
              9.465178092746653
            ],
            [
              -1.1374065622995324,
              9.45564548793341
            ]
          ]
        ]
      },
      "properties": {
        "candidate_id": "cand_r01_c01",
        "sensor_type": "sar",
        "resolution_m": 3.0,
        "acquisition_type": "new",
        "data_role": "event_observation",
        "observation_at": "2018-09-19",
        "available_at": "2018-09-19",
        "processing_level": "L2",
        "usage_type": "internal",
        "guaranteed_purchase": true,
        "area_km2": 1.44,
        "base_rate_rub_km2": 788.64,
        "base_rate_status": "scenario",
        "base_rate_source": "Учебная ставка из постановки кейса КосмоХакатона 2026, контрольная дата 20.09.2026. Подтверждённый действующий размер БРЕ не установлен.",
        "priority_score": 41.60130774122796,
        "covered_asset_count": 1,
        "covered_asset_ids": [
          "a03"
        ],
        "grid_row": 1,
        "grid_col": 1,
        "cell_km": 1.2
      }
    },
    {
      "type": "Feature",
      "geometry": {
        "type": "Polygon",
        "coordinates": [
          [
            [
              -1.1249695609260768,
              9.45564548793341
            ],
            [
              -1.1125325595526214,
              9.45564548793341
            ],
            [
              -1.1125325595526214,
              9.465178092746653
            ],
            [
              -1.1249695609260768,
              9.465178092746653
            ],
            [
              -1.1249695609260768,
              9.45564548793341
            ]
          ]
        ]
      },
      "properties": {
        "candidate_id": "cand_r01_c02",
        "sensor_type": "sar",
        "resolution_m": 3.0,
        "acquisition_type": "new",
        "data_role": "event_observation",
        "observation_at": "2018-09-19",
        "available_at": "2018-09-19",
        "processing_level": "L2",
        "usage_type": "internal",
        "guaranteed_purchase": true,
        "area_km2": 1.44,
        "base_rate_rub_km2": 788.64,
        "base_rate_status": "scenario",
        "base_rate_source": "Учебная ставка из постановки кейса КосмоХакатона 2026, контрольная дата 20.09.2026. Подтверждённый действующий размер БРЕ не установлен.",
        "priority_score": 109.93856829375709,
        "covered_asset_count": 0,
        "covered_asset_ids": [],
        "grid_row": 1,
        "grid_col": 2,
        "cell_km": 1.2
      }
    },
    {
      "type": "Feature",
      "geometry": {
        "type": "Polygon",
        "coordinates": [
          [
            [
              -1.1125325595526214,
              9.45564548793341
            ],
            [
              -1.1000955581791663,
              9.45564548793341
            ],
            [
              -1.1000955581791663,
              9.465178092746653
            ],
            [
              -1.1125325595526214,
              9.465178092746653
            ],
            [
              -1.1125325595526214,
              9.45564548793341
            ]
          ]
        ]
      },
      "properties": {
        "candidate_id": "cand_r01_c03",
        "sensor_type": "sar",
        "resolution_m": 3.0,
        "acquisition_type": "new",
        "data_role": "event_observation",
        "observation_at": "2018-09-19",
        "available_at": "2018-09-19",
        "processing_level": "L2",
        "usage_type": "internal",
        "guaranteed_purchase": true,
        "area_km2": 1.44,
        "base_rate_rub_km2": 788.64,
        "base_rate_status": "scenario",
        "base_rate_source": "Учебная ставка из постановки кейса КосмоХакатона 2026, контрольная дата 20.09.2026. Подтверждённый действующий размер БРЕ не установлен.",
        "priority_score": 8.647144947012293,
        "covered_asset_count": 0,
        "covered_asset_ids": [],
        "grid_row": 1,
        "grid_col": 3,
        "cell_km": 1.2
      }
    },
    {
      "type": "Feature",
      "geometry": {
        "type": "Polygon",
        "coordinates": [
          [
            [
              -1.1498435636729876,
              9.446113140371603
            ],
            [
              -1.1374065622995324,
              9.446113140371603
            ],
            [
              -1.1374065622995324,
              9.45564548793341
            ],
            [
              -1.1498435636729876,
              9.45564548793341
            ],
            [
              -1.1498435636729876,
              9.446113140371603
            ]
          ]
        ]
      },
      "properties": {
        "candidate_id": "cand_r02_c00",
        "sensor_type": "sar",
        "resolution_m": 3.0,
        "acquisition_type": "new",
        "data_role": "event_observation",
        "observation_at": "2018-09-19",
        "available_at": "2018-09-19",
        "processing_level": "L2",
        "usage_type": "internal",
        "guaranteed_purchase": true,
        "area_km2": 1.44,
        "base_rate_rub_km2": 788.64,
        "base_rate_status": "scenario",
        "base_rate_source": "Учебная ставка из постановки кейса КосмоХакатона 2026, контрольная дата 20.09.2026. Подтверждённый действующий размер БРЕ не установлен.",
        "priority_score": 1.0566598939336416,
        "covered_asset_count": 0,
        "covered_asset_ids": [],
        "grid_row": 2,
        "grid_col": 0,
        "cell_km": 1.2
      }
    },
    {
      "type": "Feature",
      "geometry": {
        "type": "Polygon",
        "coordinates": [
          [
            [
              -1.1374065622995324,
              9.446113140371603
            ],
            [
              -1.1249695609260768,
              9.446113140371603
            ],
            [
              -1.1249695609260768,
              9.45564548793341
            ],
            [
              -1.1374065622995324,
              9.45564548793341
            ],
            [
              -1.1374065622995324,
              9.446113140371603
            ]
          ]
        ]
      },
      "properties": {
        "candidate_id": "cand_r02_c01",
        "sensor_type": "sar",
        "resolution_m": 3.0,
        "acquisition_type": "new",
        "data_role": "event_observation",
        "observation_at": "2018-09-19",
        "available_at": "2018-09-19",
        "processing_level": "L2",
        "usage_type": "internal",
        "guaranteed_purchase": true,
        "area_km2": 1.44,
        "base_rate_rub_km2": 788.64,
        "base_rate_status": "scenario",
        "base_rate_source": "Учебная ставка из постановки кейса КосмоХакатона 2026, контрольная дата 20.09.2026. Подтверждённый действующий размер БРЕ не установлен.",
        "priority_score": 6.075450481024092,
        "covered_asset_count": 0,
        "covered_asset_ids": [],
        "grid_row": 2,
        "grid_col": 1,
        "cell_km": 1.2
      }
    },
    {
      "type": "Feature",
      "geometry": {
        "type": "Polygon",
        "coordinates": [
          [
            [
              -1.1249695609260768,
              9.446113140371603
            ],
            [
              -1.1125325595526214,
              9.446113140371603
            ],
            [
              -1.1125325595526214,
              9.45564548793341
            ],
            [
              -1.1249695609260768,
              9.45564548793341
            ],
            [
              -1.1249695609260768,
              9.446113140371603
            ]
          ]
        ]
      },
      "properties": {
        "candidate_id": "cand_r02_c02",
        "sensor_type": "sar",
        "resolution_m": 3.0,
        "acquisition_type": "new",
        "data_role": "event_observation",
        "observation_at": "2018-09-19",
        "available_at": "2018-09-19",
        "processing_level": "L2",
        "usage_type": "internal",
        "guaranteed_purchase": true,
        "area_km2": 1.44,
        "base_rate_rub_km2": 788.64,
        "base_rate_status": "scenario",
        "base_rate_source": "Учебная ставка из постановки кейса КосмоХакатона 2026, контрольная дата 20.09.2026. Подтверждённый действующий размер БРЕ не установлен.",
        "priority_score": 139.58931785176804,
        "covered_asset_count": 0,
        "covered_asset_ids": [],
        "grid_row": 2,
        "grid_col": 2,
        "cell_km": 1.2
      }
    },
    {
      "type": "Feature",
      "geometry": {
        "type": "Polygon",
        "coordinates": [
          [
            [
              -1.1125325595526214,
              9.446113140371603
            ],
            [
              -1.1000955581791663,
              9.446113140371603
            ],
            [
              -1.1000955581791663,
              9.45564548793341
            ],
            [
              -1.1125325595526214,
              9.45564548793341
            ],
            [
              -1.1125325595526214,
              9.446113140371603
            ]
          ]
        ]
      },
      "properties": {
        "candidate_id": "cand_r02_c03",
        "sensor_type": "sar",
        "resolution_m": 3.0,
        "acquisition_type": "new",
        "data_role": "event_observation",
        "observation_at": "2018-09-19",
        "available_at": "2018-09-19",
        "processing_level": "L2",
        "usage_type": "internal",
        "guaranteed_purchase": true,
        "area_km2": 1.44,
        "base_rate_rub_km2": 788.64,
        "base_rate_status": "scenario",
        "base_rate_source": "Учебная ставка из постановки кейса КосмоХакатона 2026, контрольная дата 20.09.2026. Подтверждённый действующий размер БРЕ не установлен.",
        "priority_score": 590.0708317490701,
        "covered_asset_count": 0,
        "covered_asset_ids": [],
        "grid_row": 2,
        "grid_col": 3,
        "cell_km": 1.2
      }
    },
    {
      "type": "Feature",
      "geometry": {
        "type": "Polygon",
        "coordinates": [
          [
            [
              -1.1498435636729876,
              9.436581049782898
            ],
            [
              -1.1374065622995324,
              9.436581049782898
            ],
            [
              -1.1374065622995324,
              9.446113140371603
            ],
            [
              -1.1498435636729876,
              9.446113140371603
            ],
            [
              -1.1498435636729876,
              9.436581049782898
            ]
          ]
        ]
      },
      "properties": {
        "candidate_id": "cand_r03_c00",
        "sensor_type": "sar",
        "resolution_m": 3.0,
        "acquisition_type": "new",
        "data_role": "event_observation",
        "observation_at": "2018-09-19",
        "available_at": "2018-09-19",
        "processing_level": "L2",
        "usage_type": "internal",
        "guaranteed_purchase": true,
        "area_km2": 1.44,
        "base_rate_rub_km2": 788.64,
        "base_rate_status": "scenario",
        "base_rate_source": "Учебная ставка из постановки кейса КосмоХакатона 2026, контрольная дата 20.09.2026. Подтверждённый действующий размер БРЕ не установлен.",
        "priority_score": 2.127379275414839,
        "covered_asset_count": 1,
        "covered_asset_ids": [
          "a08"
        ],
        "grid_row": 3,
        "grid_col": 0,
        "cell_km": 1.2
      }
    },
    {
      "type": "Feature",
      "geometry": {
        "type": "Polygon",
        "coordinates": [
          [
            [
              -1.1374065622995324,
              9.436581049782898
            ],
            [
              -1.1249695609260768,
              9.436581049782898
            ],
            [
              -1.1249695609260768,
              9.446113140371603
            ],
            [
              -1.1374065622995324,
              9.446113140371603
            ],
            [
              -1.1374065622995324,
              9.436581049782898
            ]
          ]
        ]
      },
      "properties": {
        "candidate_id": "cand_r03_c01",
        "sensor_type": "sar",
        "resolution_m": 3.0,
        "acquisition_type": "new",
        "data_role": "event_observation",
        "observation_at": "2018-09-19",
        "available_at": "2018-09-19",
        "processing_level": "L2",
        "usage_type": "internal",
        "guaranteed_purchase": true,
        "area_km2": 1.44,
        "base_rate_rub_km2": 788.64,
        "base_rate_status": "scenario",
        "base_rate_source": "Учебная ставка из постановки кейса КосмоХакатона 2026, контрольная дата 20.09.2026. Подтверждённый действующий размер БРЕ не установлен.",
        "priority_score": 0.8168590876705508,
        "covered_asset_count": 1,
        "covered_asset_ids": [
          "a05"
        ],
        "grid_row": 3,
        "grid_col": 1,
        "cell_km": 1.2
      }
    },
    {
      "type": "Feature",
      "geometry": {
        "type": "Polygon",
        "coordinates": [
          [
            [
              -1.1249695609260768,
              9.436581049782898
            ],
            [
              -1.1125325595526214,
              9.436581049782898
            ],
            [
              -1.1125325595526214,
              9.446113140371603
            ],
            [
              -1.1249695609260768,
              9.446113140371603
            ],
            [
              -1.1249695609260768,
              9.436581049782898
            ]
          ]
        ]
      },
      "properties": {
        "candidate_id": "cand_r03_c02",
        "sensor_type": "sar",
        "resolution_m": 3.0,
        "acquisition_type": "new",
        "data_role": "event_observation",
        "observation_at": "2018-09-19",
        "available_at": "2018-09-19",
        "processing_level": "L2",
        "usage_type": "internal",
        "guaranteed_purchase": true,
        "area_km2": 1.44,
        "base_rate_rub_km2": 788.64,
        "base_rate_status": "scenario",
        "base_rate_source": "Учебная ставка из постановки кейса КосмоХакатона 2026, контрольная дата 20.09.2026. Подтверждённый действующий размер БРЕ не установлен.",
        "priority_score": 116.03807775780308,
        "covered_asset_count": 0,
        "covered_asset_ids": [],
        "grid_row": 3,
        "grid_col": 2,
        "cell_km": 1.2
      }
    },
    {
      "type": "Feature",
      "geometry": {
        "type": "Polygon",
        "coordinates": [
          [
            [
              -1.1125325595526214,
              9.436581049782898
            ],
            [
              -1.1000955581791663,
              9.436581049782898
            ],
            [
              -1.1000955581791663,
              9.446113140371603
            ],
            [
              -1.1125325595526214,
              9.446113140371603
            ],
            [
              -1.1125325595526214,
              9.436581049782898
            ]
          ]
        ]
      },
      "properties": {
        "candidate_id": "cand_r03_c03",
        "sensor_type": "sar",
        "resolution_m": 3.0,
        "acquisition_type": "new",
        "data_role": "event_observation",
        "observation_at": "2018-09-19",
        "available_at": "2018-09-19",
        "processing_level": "L2",
        "usage_type": "internal",
        "guaranteed_purchase": true,
        "area_km2": 1.44,
        "base_rate_rub_km2": 788.64,
        "base_rate_status": "scenario",
        "base_rate_source": "Учебная ставка из постановки кейса КосмоХакатона 2026, контрольная дата 20.09.2026. Подтверждённый действующий размер БРЕ не установлен.",
        "priority_score": 3.457727509793358,
        "covered_asset_count": 1,
        "covered_asset_ids": [
          "a07"
        ],
        "grid_row": 3,
        "grid_col": 3,
        "cell_km": 1.2
      }
    },
    {
      "type": "Feature",
      "geometry": {
        "type": "Polygon",
        "coordinates": [
          [
            [
              -1.1498435636729876,
              9.427049215889017
            ],
            [
              -1.1374065622995324,
              9.427049215889017
            ],
            [
              -1.1374065622995324,
              9.436581049782898
            ],
            [
              -1.1498435636729876,
              9.436581049782898
            ],
            [
              -1.1498435636729876,
              9.427049215889017
            ]
          ]
        ]
      },
      "properties": {
        "candidate_id": "cand_r04_c00",
        "sensor_type": "sar",
        "resolution_m": 3.0,
        "acquisition_type": "new",
        "data_role": "event_observation",
        "observation_at": "2018-09-19",
        "available_at": "2018-09-19",
        "processing_level": "L2",
        "usage_type": "internal",
        "guaranteed_purchase": true,
        "area_km2": 1.44,
        "base_rate_rub_km2": 788.64,
        "base_rate_status": "scenario",
        "base_rate_source": "Учебная ставка из постановки кейса КосмоХакатона 2026, контрольная дата 20.09.2026. Подтверждённый действующий размер БРЕ не установлен.",
        "priority_score": 6.5542927907686845,
        "covered_asset_count": 1,
        "covered_asset_ids": [
          "a01"
        ],
        "grid_row": 4,
        "grid_col": 0,
        "cell_km": 1.2
      }
    },
    {
      "type": "Feature",
      "geometry": {
        "type": "Polygon",
        "coordinates": [
          [
            [
              -1.1374065622995324,
              9.427049215889017
            ],
            [
              -1.1249695609260768,
              9.427049215889017
            ],
            [
              -1.1249695609260768,
              9.436581049782898
            ],
            [
              -1.1374065622995324,
              9.436581049782898
            ],
            [
              -1.1374065622995324,
              9.427049215889017
            ]
          ]
        ]
      },
      "properties": {
        "candidate_id": "cand_r04_c01",
        "sensor_type": "sar",
        "resolution_m": 3.0,
        "acquisition_type": "new",
        "data_role": "event_observation",
        "observation_at": "2018-09-19",
        "available_at": "2018-09-19",
        "processing_level": "L2",
        "usage_type": "internal",
        "guaranteed_purchase": true,
        "area_km2": 1.44,
        "base_rate_rub_km2": 788.64,
        "base_rate_status": "scenario",
        "base_rate_source": "Учебная ставка из постановки кейса КосмоХакатона 2026, контрольная дата 20.09.2026. Подтверждённый действующий размер БРЕ не установлен.",
        "priority_score": 10.969506539352274,
        "covered_asset_count": 0,
        "covered_asset_ids": [],
        "grid_row": 4,
        "grid_col": 1,
        "cell_km": 1.2
      }
    },
    {
      "type": "Feature",
      "geometry": {
        "type": "Polygon",
        "coordinates": [
          [
            [
              -1.1249695609260768,
              9.427049215889017
            ],
            [
              -1.1125325595526214,
              9.427049215889017
            ],
            [
              -1.1125325595526214,
              9.436581049782898
            ],
            [
              -1.1249695609260768,
              9.436581049782898
            ],
            [
              -1.1249695609260768,
              9.427049215889017
            ]
          ]
        ]
      },
      "properties": {
        "candidate_id": "cand_r04_c02",
        "sensor_type": "sar",
        "resolution_m": 3.0,
        "acquisition_type": "new",
        "data_role": "event_observation",
        "observation_at": "2018-09-19",
        "available_at": "2018-09-19",
        "processing_level": "L2",
        "usage_type": "internal",
        "guaranteed_purchase": true,
        "area_km2": 1.44,
        "base_rate_rub_km2": 788.64,
        "base_rate_status": "scenario",
        "base_rate_source": "Учебная ставка из постановки кейса КосмоХакатона 2026, контрольная дата 20.09.2026. Подтверждённый действующий размер БРЕ не установлен.",
        "priority_score": 179.3382111002644,
        "covered_asset_count": 2,
        "covered_asset_ids": [
          "a06",
          "a09"
        ],
        "grid_row": 4,
        "grid_col": 2,
        "cell_km": 1.2
      }
    },
    {
      "type": "Feature",
      "geometry": {
        "type": "Polygon",
        "coordinates": [
          [
            [
              -1.1125325595526214,
              9.427049215889017
            ],
            [
              -1.1000955581791663,
              9.427049215889017
            ],
            [
              -1.1000955581791663,
              9.436581049782898
            ],
            [
              -1.1125325595526214,
              9.436581049782898
            ],
            [
              -1.1125325595526214,
              9.427049215889017
            ]
          ]
        ]
      },
      "properties": {
        "candidate_id": "cand_r04_c03",
        "sensor_type": "sar",
        "resolution_m": 3.0,
        "acquisition_type": "new",
        "data_role": "event_observation",
        "observation_at": "2018-09-19",
        "available_at": "2018-09-19",
        "processing_level": "L2",
        "usage_type": "internal",
        "guaranteed_purchase": true,
        "area_km2": 1.44,
        "base_rate_rub_km2": 788.64,
        "base_rate_status": "scenario",
        "base_rate_source": "Учебная ставка из постановки кейса КосмоХакатона 2026, контрольная дата 20.09.2026. Подтверждённый действующий размер БРЕ не установлен.",
        "priority_score": 187.1558955754703,
        "covered_asset_count": 0,
        "covered_asset_ids": [],
        "grid_row": 4,
        "grid_col": 3,
        "cell_km": 1.2
      }
    },
    {
      "type": "Feature",
      "geometry": {
        "type": "Polygon",
        "coordinates": [
          [
            [
              -1.1249695609260768,
              9.436581049782898
            ],
            [
              -1.1000955581791663,
              9.436581049782898
            ],
            [
              -1.1000955581791663,
              9.45564548793341
            ],
            [
              -1.1249695609260768,
              9.45564548793341
            ],
            [
              -1.1249695609260768,
              9.436581049782898
            ]
          ]
        ]
      },
      "properties": {
        "candidate_id": "ctx_r01_c01",
        "sensor_type": "optical",
        "resolution_m": 10.0,
        "acquisition_type": "archive",
        "data_role": "context",
        "observation_at": "2018-03-22",
        "available_at": "2018-09-19",
        "processing_level": "L1",
        "usage_type": "internal",
        "guaranteed_purchase": false,
        "area_km2": 5.76,
        "base_rate_rub_km2": 788.64,
        "base_rate_status": "scenario",
        "base_rate_source": "Учебная ставка из постановки кейса КосмоХакатона 2026, контрольная дата 20.09.2026. Подтверждённый действующий размер БРЕ не установлен.",
        "priority_score": 849.1559548684345,
        "covered_asset_count": 1,
        "covered_asset_ids": [
          "a07"
        ],
        "grid_row": 1,
        "grid_col": 1,
        "cell_km": 2.4
      }
    },
    {
      "type": "Feature",
      "geometry": {
        "type": "Polygon",
        "coordinates": [
          [
            [
              -1.1498435636729876,
              9.45564548793341
            ],
            [
              -1.1249695609260768,
              9.45564548793341
            ],
            [
              -1.1249695609260768,
              9.474710955089744
            ],
            [
              -1.1498435636729876,
              9.474710955089744
            ],
            [
              -1.1498435636729876,
              9.45564548793341
            ]
          ]
        ]
      },
      "properties": {
        "candidate_id": "ctx_r00_c00",
        "sensor_type": "optical",
        "resolution_m": 10.0,
        "acquisition_type": "archive",
        "data_role": "context",
        "observation_at": "2018-03-22",
        "available_at": "2018-09-19",
        "processing_level": "L1",
        "usage_type": "internal",
        "guaranteed_purchase": false,
        "area_km2": 5.76,
        "base_rate_rub_km2": 788.64,
        "base_rate_status": "scenario",
        "base_rate_source": "Учебная ставка из постановки кейса КосмоХакатона 2026, контрольная дата 20.09.2026. Подтверждённый действующий размер БРЕ не установлен.",
        "priority_score": 586.9936031723964,
        "covered_asset_count": 3,
        "covered_asset_ids": [
          "a03",
          "a04",
          "a10"
        ],
        "grid_row": 0,
        "grid_col": 0,
        "cell_km": 2.4
      }
    }
  ]
}
